$$SOE
2459580.500000000, A.D. 2022-Jan-01 00:00:00.0000, 2.362683214356874E+08, -1.047986587780593E+08, 1.009705394667814E+07,
2459587.500000000, A.D. 2022-Jan-08 00:00:00.0000, 2.439421206716459E+08, -1.020766262255244E+08, 7.933429321494114E+06,
2459594.500000000, A.D. 2022-Jan-15 00:00:00.0000, 2.509762136710150E+08, -9.908675408774333E+07, 5.748921461184114E+06,
2459601.500000000, A.D. 2022-Jan-22 00:00:00.0000, 2.573904412329831E+08, -9.585203143793359E+07, 3.550149853148602E+06,
2459608.500000000, A.D. 2022-Jan-29 00:00:00.0000, 2.632016927318218E+08, -9.239266022577144E+07, 1.343008056629490E+06,
2459615.500000000, A.D. 2022-Feb-05 00:00:00.0000, 2.684242585918928E+08, -8.872655761994419E+07, -8.671809487675130E+05,
2459622.500000000, A.D. 2022-Feb-12 00:00:00.0000, 2.730701129289526E+08, -8.486975718787970E+07, -3.075541370403521E+06,
2459629.500000000, A.D. 2022-Feb-19 00:00:00.0000, 2.771491392953767E+08, -8.083673206758818E+07, -5.277544430163238E+06,
2459636.500000000, A.D. 2022-Feb-26 00:00:00.0000, 2.806693088341547E+08, -7.664065944151288E+07, -7.468925252152663E+06,
2459643.500000000, A.D. 2022-Mar-05 00:00:00.0000, 2.836368189090666E+08, -7.229364071486793E+07, -9.645612357708339E+06,
2459650.500000000, A.D. 2022-Mar-12 00:00:00.0000, 2.860561982921108E+08, -6.780688788498691E+07, -1.180366636192136E+07,
2459657.500000000, A.D. 2022-Mar-19 00:00:00.0000, 2.879303832503427E+08, -6.319088411707426E+07, -1.393922519233028E+07,
2459664.500000000, A.D. 2022-Mar-26 00:00:00.0000, 2.892607675565836E+08, -5.845552489296433E+07, -1.604845365839252E+07,
2459671.500000000, A.D. 2022-Apr-02 00:00:00.0000, 2.900472284382731E+08, -5.361024496999714E+07, -1.812749554422447E+07,
2459678.500000000, A.D. 2022-Apr-09 00:00:00.0000, 2.902881297551498E+08, -4.866413552127878E+07, -2.017242661249480E+07,
2459685.500000000, A.D. 2022-Apr-16 00:00:00.0000, 2.899803029250609E+08, -4.362605465711330E+07, -2.217920695217251E+07,
2459692.500000000, A.D. 2022-Apr-23 00:00:00.0000, 2.891190036743302E+08, -3.850473382660173E+07, -2.414363091055508E+07,
2459699.500000000, A.D. 2022-Apr-30 00:00:00.0000, 2.876978412197667E+08, -3.330888590613455E+07, -2.606127296446087E+07,
2459706.500000000, A.D. 2022-May-07 00:00:00.0000, 2.857086804205949E+08, -2.804732069904284E+07, -2.792742810443386E+07,
2459713.500000000, A.D. 2022-May-14 00:00:00.0000, 2.831415146096708E+08, -2.272906898725494E+07, -2.973704440280640E+07,
2459720.500000000, A.D. 2022-May-21 00:00:00.0000, 2.799843019912673E+08, -1.736351930376878E+07, -3.148464480948357E+07,
2459727.500000000, A.D. 2022-May-28 00:00:00.0000, 2.762227582563862E+08, -1.196057446608292E+07, -3.316423478742515E+07,
2459734.500000000, A.D. 2022-Jun-04 00:00:00.0000, 2.718400964857860E+08, -6.530835969727516E+06, -3.476919140295862E+07,
2459741.500000000, A.D. 2022-Jun-11 00:00:00.0000, 2.668167021568956E+08, -1.085826524390526E+06, -3.629212800869571E+07,
2459748.500000000, A.D. 2022-Jun-18 00:00:00.0000, 2.611297266926627E+08, 4.361735329965817E+06, -3.772472657995649E+07,
2459755.500000000, A.D. 2022-Jun-25 00:00:00.0000, 2.547525770104944E+08, 9.797589143515462E+06, -3.905752675693296E+07,
2459762.500000000, A.D. 2022-Jul-02 00:00:00.0000, 2.476542701858249E+08, 1.520548756788630E+07, -4.027965620403763E+07,
2459769.500000000, A.D. 2022-Jul-09 00:00:00.0000, 2.397986105067993E+08, 2.056661303126781E+07, -4.137848022144507E+07,
2459776.500000000, A.D. 2022-Jul-16 00:00:00.0000, 2.311431280376238E+08, 2.585879841159280E+07, -4.233913818391594E+07,
2459783.500000000, A.D. 2022-Jul-23 00:00:00.0000, 2.216376890338407E+08, 3.105546229631295E+07, -4.314391811606690E+07,
2459790.500000000, A.D. 2022-Jul-30 00:00:00.0000, 2.112226497185698E+08, 3.612411531068994E+07, -4.377139497483705E+07,
2459797.500000000, A.D. 2022-Aug-06 00:00:00.0000, 1.998263633872366E+08, 4.102421178384253E+07, -4.419521429635391E+07,
2459804.500000000, A.D. 2022-Aug-13 00:00:00.0000, 1.873617405882910E+08, 4.570397005547162E+07, -4.438232591753648E+07,
2459811.500000000, A.D. 2022-Aug-20 00:00:00.0000, 1.737213845352682E+08, 5.009549657987598E+07, -4.429033246188225E+07,
2459818.500000000, A.D. 2022-Aug-27 00:00:00.0000, 1.587705224923994E+08, 5.410699323522457E+07, -4.386334772820060E+07,
2459825.500000000, A.D. 2022-Sep-03 00:00:00.0000, 1.423364128782760E+08, 5.760967251590247E+07, -4.302521595975909E+07,
2459832.500000000, A.D. 2022-Sep-10 00:00:00.0000, 1.241919150681261E+08, 6.041439695083529E+07, -4.166774839542207E+07,
2459839.500000000, A.D. 2022-Sep-17 00:00:00.0000, 1.040291114560686E+08, 6.222658939740796E+07, -3.962875426815611E+07,
2459846.500000000, A.D. 2022-Sep-24 00:00:00.0000, 8.141605105757348E+07, 6.254982412480122E+07, -3.664687823326764E+07,
2459853.500000000, A.D. 2022-Oct-01 00:00:00.0000, 5.572982035594162E+07, 6.044871523054475E+07, -3.225595835453812E+07,
2459860.500000000, A.D. 2022-Oct-08 00:00:00.0000, 2.611741550898384E+07, 5.383677317774278E+07, -2.549002621034119E+07,
2459867.500000000, A.D. 2022-Oct-15 00:00:00.0000, -7.505542001256783E+06, 3.668902941680869E+07, -1.388724594338146E+07,
2459874.500000000, A.D. 2022-Oct-22 00:00:00.0000, -2.790455676232815E+07, -5.654931299154988E+06, 6.141611244871773E+06,
2459881.500000000, A.D. 2022-Oct-29 00:00:00.0000, -8.398011888588067E+06, -4.582049772779504E+07, 1.979039486007667E+07,
2459888.500000000, A.D. 2022-Nov-05 00:00:00.0000, 1.797802203251406E+07, -6.857116483541098E+07, 2.541113910114736E+07,
2459895.500000000, A.D. 2022-Nov-12 00:00:00.0000, 4.262490416264945E+07, -8.306277642506501E+07, 2.791117715691043E+07,
2459902.500000000, A.D. 2022-Nov-19 00:00:00.0000, 6.506581209938272E+07, -9.304912330971998E+07, 2.888274201100430E+07,
2459909.500000000, A.D. 2022-Nov-26 00:00:00.0000, 8.554145655599242E+07, -1.001689589207857E+08, 2.895913830961731E+07,
2459916.500000000, A.D. 2022-Dec-03 00:00:00.0000, 1.043199428264838E+08, -1.052798619202532E+08, 2.845221243049852E+07,
2459923.500000000, A.D. 2022-Dec-10 00:00:00.0000, 1.216211919967538E+08, -1.088897586490348E+08, 2.753824882094076E+07,
2459930.500000000, A.D. 2022-Dec-17 00:00:00.0000, 1.376181888889557E+08, -1.113264373379890E+08, 2.632673593409266E+07,
2459937.500000000, A.D. 2022-Dec-24 00:00:00.0000, 1.524472642482162E+08, -1.128150553080293E+08, 2.489047108278933E+07,
2459944.500000000, A.D. 2022-Dec-31 00:00:00.0000, 1.662171653104751E+08, -1.135177649462668E+08, 2.328042667519939E+07,
2459951.500000000, A.D. 2023-Jan-07 00:00:00.0000, 1.790158351176363E+08, -1.135557560992879E+08, 2.153378127328151E+07,
2459958.500000000, A.D. 2023-Jan-14 00:00:00.0000, 1.909153122222490E+08, -1.130223497824087E+08, 1.967857044647645E+07,
2459965.500000000, A.D. 2023-Jan-21 00:00:00.0000, 2.019752722127942E+08, -1.119911982516103E+08, 1.773653354370274E+07,
2459972.500000000, A.D. 2023-Jan-28 00:00:00.0000, 2.122456189762435E+08, -1.105216476490211E+08, 1.572493682999931E+07,
2459979.500000000, A.D. 2023-Feb-04 00:00:00.0000, 2.217684085168508E+08, -1.086623719150792E+08, 1.365778628784304E+07,
2459986.500000000, A.D. 2023-Feb-11 00:00:00.0000, 2.305792969727673E+08, -1.064539114068610E+08, 1.154666092641344E+07,
2459993.500000000, A.D. 2023-Feb-18 00:00:00.0000, 2.387086452285390E+08, -1.039304939789242E+08, 9.401301517604765E+06,
2460000.500000000, A.D. 2023-Feb-25 00:00:00.0000, 2.461823720363946E+08, -1.011213717710562E+08, 7.230036898731366E+06,
2460007.500000000, A.D. 2023-Mar-04 00:00:00.0000, 2.530226199722417E+08, -9.805182265547843E+07, 5.040099595500655E+06,
2460014.500000000, A.D. 2023-Mar-11 00:00:00.0000, 2.592482798649442E+08, -9.474391433699946E+07, 2.837864349389222E+06,
2460021.500000000, A.D. 2023-Mar-18 00:00:00.0000, 2.648754065601375E+08, -9.121709727900757E+07, 6.290319199761860E+05,
2460028.500000000, A.D. 2023-Mar-25 00:00:00.0000, 2.699175501057775E+08, -8.748867214780359E+07, -1.581226585840005E+06,
2460035.500000000, A.D. 2023-Apr-01 00:00:00.0000, 2.743860203501008E+08, -8.357416354143418E+07, -3.788154200425997E+06,
2460042.500000000, A.D. 2023-Apr-08 00:00:00.0000, 2.782900973823723E+08, -7.948762188820502E+07, -5.987313629866716E+06,
2460049.500000000, A.D. 2023-Apr-15 00:00:00.0000, 2.816371952016125E+08, -7.524187156108347E+07, -8.174508163091041E+06,
2460056.500000000, A.D. 2023-Apr-22 00:00:00.0000, 2.844329876388741E+08, -7.084872089516924E+07, -1.034571423236750E+07,
2460063.500000000, A.D. 2023-Apr-29 00:00:00.0000, 2.866815045913611E+08, -6.631914145434105E+07, -1.249702252089081E+07,
2460070.500000000, A.D. 2023-May-06 00:00:00.0000, 2.883852006633818E+08, -6.166342222822355E+07, -1.462458480426129E+07,
2460077.500000000, A.D. 2023-May-13 00:00:00.0000, 2.895449978985885E+08, -5.689130560742443E+07, -1.672456445377802E+07,
2460084.500000000, A.D. 2023-May-20 00:00:00.0000, 2.901603044890530E+08, -5.201211052758826E+07, -1.879308889853836E+07,
2460091.500000000, A.D. 2023-May-27 00:00:00.0000, 2.902290104117280E+08, -4.703484700153302E+07, -2.082620246736912E+07,
2460098.500000000, A.D. 2023-Jun-03 00:00:00.0000, 2.897474599665959E+08, -4.196832577095546E+07, -2.281981807460475E+07,
2460105.500000000, A.D. 2023-Jun-10 00:00:00.0000, 2.887104003145285E+08, -3.682126665554163E+07, -2.476966617664406E+07,
2460112.500000000, A.D. 2023-Jun-17 00:00:00.0000, 2.871109042753439E+08, -3.160240925709899E+07, -2.667123929967363E+07,
2460119.500000000, A.D. 2023-Jun-24 00:00:00.0000, 2.849402648437985E+08, -2.632062982781913E+07, -2.851973020205622E+07,
2460126.500000000, A.D. 2023-Jul-01 00:00:00.0000, 2.821878575813527E+08, -2.098506786108144E+07, -3.030996127881066E+07,
2460133.500000000, A.D. 2023-Jul-08 00:00:00.0000, 2.788409636162499E+08, -1.560526682735910E+07, -3.203630207849603E+07,
2460140.500000000, A.D. 2023-Jul-15 00:00:00.0000, 2.748845444455744E+08, -1.019133845844385E+07, -3.369257134102584E+07,
2460147.500000000, A.D. 2023-Jul-22 00:00:00.0000, 2.703009619425811E+08, -4.754160114775181E+06, -3.527191912178420E+07,
$$EOE